[
    {
        "Altitude(m)": 612502.1929788361,
        "Argument of Periapsis(deg)": 0.0,
        "Eccentricity": 0.0,
        "Inclination(deg)": 60.0,
        "Latitude(deg)": -28.135967873454124,
        "Longitude(deg)": 132.14821472377236,
        "Mean Anomaly(deg)": -32.72729999999996,
        "RAAN(deg)": 250.00000000000003,
        "Satellite Name": "Test1 1120",
        "Satellite Number": 1120,
        "Semi-Major Axis(m)": 6980739.136638005,
        "Time(s)": 0
    },
    {
        "Altitude(m)": 612308.6410102814,
        "Argument of Periapsis(deg)": 0.00010418945913296404,
        "Eccentricity": 0.0,
        "Inclination(deg)": 60.0,
        "Latitude(deg)": -27.6230235817661,
        "Longitude(deg)": 132.5016895994774,
        "Mean Anomaly(deg)": -32.1071938545381,
        "RAAN(deg)": 249.99957995086027,
        "Satellite Name": "Test1 1120",
        "Satellite Number": 1120,
        "Semi-Major Axis(m)": 6980739.136638005,
        "Time(s)": 10
    }
]